[{"OBJECT_NAME":"STARLINK-11108 [DTC]","OBJECT_ID":"2024-088E","EPOCH":"2026-03-22T21:21:38.551392","MEAN_MOTION":15.69700663,"ECCENTRICITY":8.89e-5,"INCLINATION":53.1594,"RA_OF_ASC_NODE":261.333,"ARG_OF_PERICENTER":57.0476,"MEAN_ANOMALY":303.0627,"EPHEMERIS_TYPE":0,"CLASSIFICATION_TYPE":"U","NORAD_CAT_ID":59712,"ELEMENT_SET_NO":999,"REV_AT_EPOCH":10834,"BSTAR":5.1958783e-5,"MEAN_MOTION_DOT":5.708e-5,"MEAN_MOTION_DDOT":0},{"OBJECT_NAME":"STARLINK-11100 [DTC]","OBJECT_ID":"2024-088F","EPOCH":"2026-03-24T11:26:40.012800","MEAN_MOTION":15.69710816,"ECCENTRICITY":5.09e-5,"INCLINATION":53.1591,"RA_OF_ASC_NODE":253.4535,"ARG_OF_PERICENTER":44.2105,"MEAN_ANOMALY":315.8953,"EPHEMERIS_TYPE":0,"CLASSIFICATION_TYPE":"U","NORAD_CAT_ID":59713,"ELEMENT_SET_NO":999,"REV_AT_EPOCH":10859,"BSTAR":-1.1895e-5,"MEAN_MOTION_DOT":-2.028e-5,"MEAN_MOTION_DDOT":0},{"OBJECT_NAME":"STARLINK-11094 [DTC]","OBJECT_ID":"2024-088G","EPOCH":"2026-03-24T11:19:36.573312","MEAN_MOTION":15.69720979,"ECCENTRICITY":6.34e-5,"INCLINATION":53.1592,"RA_OF_ASC_NODE":253.4285,"ARG_OF_PERICENTER":149.0432,"MEAN_ANOMALY":211.0623,"EPHEMERIS_TYPE":0,"CLASSIFICATION_TYPE":"U","NORAD_CAT_ID":59714,"ELEMENT_SET_NO":999,"REV_AT_EPOCH":10859,"BSTAR":0.00049337,"MEAN_MOTION_DOT":0.0005964,"MEAN_MOTION_DDOT":0},{"OBJECT_NAME":"STARLINK-11101 [DTC]","OBJECT_ID":"2024-088H","EPOCH":"2026-03-24T11:05:27.967200","MEAN_MOTION":15.69705548,"ECCENTRICITY":6.89e-5,"INCLINATION":53.1584,"RA_OF_ASC_NODE":253.3548,"ARG_OF_PERICENTER":29.253,"MEAN_ANOMALY":330.8527,"EPHEMERIS_TYPE":0,"CLASSIFICATION_TYPE":"U","NORAD_CAT_ID":59715,"ELEMENT_SET_NO":999,"REV_AT_EPOCH":10859,"BSTAR":-2.0802e-5,"MEAN_MOTION_DOT":-3.106e-5,"MEAN_MOTION_DDOT":0},{"OBJECT_NAME":"STARLINK-11099 [DTC]","OBJECT_ID":"2024-088J","EPOCH":"2026-03-24T11:12:32.291424","MEAN_MOTION":15.69711387,"ECCENTRICITY":0.0001435,"INCLINATION":53.1582,"RA_OF_ASC_NODE":253.3874,"ARG_OF_PERICENTER":124.4591,"MEAN_ANOMALY":235.6562,"EPHEMERIS_TYPE":0,"CLASSIFICATION_TYPE":"U","NORAD_CAT_ID":59716,"ELEMENT_SET_NO":999,"REV_AT_EPOCH":10859,"BSTAR":-1.2174e-5,"MEAN_MOTION_DOT":-2.064e-5,"MEAN_MOTION_DDOT":0},{"OBJECT_NAME":"STARLINK-11084 [DTC]","OBJECT_ID":"2024-088K","EPOCH":"2026-03-24T10:58:26.147712","MEAN_MOTION":15.69683835,"ECCENTRICITY":4.86e-5,"INCLINATION":53.16,"RA_OF_ASC_NODE":253.3219,"ARG_OF_PERICENTER":247.8959,"MEAN_ANOMALY":112.2007,"EPHEMERIS_TYPE":0,"CLASSIFICATION_TYPE":"U","NORAD_CAT_ID":59717,"ELEMENT_SET_NO":999,"REV_AT_EPOCH":10859,"BSTAR":4.7787e-5,"MEAN_MOTION_DOT":5.199e-5,"MEAN_MOTION_DDOT":0},{"OBJECT_NAME":"STARLINK-11103 [DTC]","OBJECT_ID":"2024-088L","EPOCH":"2026-03-24T10:51:22.808448","MEAN_MOTION":15.69653271,"ECCENTRICITY":3.88e-5,"INCLINATION":53.1598,"RA_OF_ASC_NODE":253.2885,"ARG_OF_PERICENTER":198.0861,"MEAN_ANOMALY":162.0143,"EPHEMERIS_TYPE":0,"CLASSIFICATION_TYPE":"U","NORAD_CAT_ID":59718,"ELEMENT_SET_NO":999,"REV_AT_EPOCH":10859,"BSTAR":6.4445e-5,"MEAN_MOTION_DOT":7.209e-5,"MEAN_MOTION_DDOT":0},{"OBJECT_NAME":"STARLINK-11096 [DTC]","OBJECT_ID":"2024-088M","EPOCH":"2026-03-24T12:02:00.871008","MEAN_MOTION":15.69680147,"ECCENTRICITY":7.36e-5,"INCLINATION":53.1593,"RA_OF_ASC_NODE":253.6128,"ARG_OF_PERICENTER":221.2068,"MEAN_ANOMALY":138.8894,"EPHEMERIS_TYPE":0,"CLASSIFICATION_TYPE":"U","NORAD_CAT_ID":59719,"ELEMENT_SET_NO":999,"REV_AT_EPOCH":10859,"BSTAR":-6.2527e-6,"MEAN_MOTION_DOT":-1.344e-5,"MEAN_MOTION_DDOT":0},{"OBJECT_NAME":"STARLINK-11095 [DTC]","OBJECT_ID":"2024-088N","EPOCH":"2026-03-24T04:37:34.794048","MEAN_MOTION":15.6966948,"ECCENTRICITY":0.00015354,"INCLINATION":53.1599,"RA_OF_ASC_NODE":254.5098,"ARG_OF_PERICENTER":95.659,"MEAN_ANOMALY":264.4603,"EPHEMERIS_TYPE":0,"CLASSIFICATION_TYPE":"U","NORAD_CAT_ID":59720,"ELEMENT_SET_NO":999,"REV_AT_EPOCH":10855,"BSTAR":-4.8767625e-5,"MEAN_MOTION_DOT":-6.483e-5,"MEAN_MOTION_DDOT":0},{"OBJECT_NAME":"STARLINK-31834","OBJECT_ID":"2024-088P","EPOCH":"2026-03-24T05:11:57.084288","MEAN_MOTION":15.30171243,"ECCENTRICITY":0.0002155,"INCLINATION":53.1613,"RA_OF_ASC_NODE":72.622,"ARG_OF_PERICENTER":82.814,"MEAN_ANOMALY":277.3105,"EPHEMERIS_TYPE":0,"CLASSIFICATION_TYPE":"U","NORAD_CAT_ID":59721,"ELEMENT_SET_NO":999,"REV_AT_EPOCH":10608,"BSTAR":-6.7108e-5,"MEAN_MOTION_DOT":-2.345e-5,"MEAN_MOTION_DDOT":0},{"OBJECT_NAME":"STARLINK-31843","OBJECT_ID":"2024-088Q","EPOCH":"2026-03-24T05:27:08.442720","MEAN_MOTION":15.30193857,"ECCENTRICITY":0.00010695,"INCLINATION":53.1599,"RA_OF_ASC_NODE":72.6851,"ARG_OF_PERICENTER":78.0126,"MEAN_ANOMALY":282.0994,"EPHEMERIS_TYPE":0,"CLASSIFICATION_TYPE":"U","NORAD_CAT_ID":59722,"ELEMENT_SET_NO":999,"REV_AT_EPOCH":10590,"BSTAR":0.00021144183,"MEAN_MOTION_DOT":5.907e-5,"MEAN_MOTION_DDOT":0},{"OBJECT_NAME":"STARLINK-31766","OBJECT_ID":"2024-088R","EPOCH":"2026-03-24T04:56:44.943936","MEAN_MOTION":15.30197602,"ECCENTRICITY":0.0001419,"INCLINATION":53.1596,"RA_OF_ASC_NODE":72.5553,"ARG_OF_PERICENTER":90.2501,"MEAN_ANOMALY":269.8662,"EPHEMERIS_TYPE":0,"CLASSIFICATION_TYPE":"U","NORAD_CAT_ID":59723,"ELEMENT_SET_NO":999,"REV_AT_EPOCH":10590,"BSTAR":0.00022662,"MEAN_MOTION_DOT":6.358e-5,"MEAN_MOTION_DDOT":0},{"OBJECT_NAME":"STARLINK-31836","OBJECT_ID":"2024-088S","EPOCH":"2026-03-24T05:02:49.148448","MEAN_MOTION":15.30190622,"ECCENTRICITY":6.58e-5,"INCLINATION":53.1608,"RA_OF_ASC_NODE":72.5818,"ARG_OF_PERICENTER":110.4249,"MEAN_ANOMALY":249.6823,"EPHEMERIS_TYPE":0,"CLASSIFICATION_TYPE":"U","NORAD_CAT_ID":59724,"ELEMENT_SET_NO":999,"REV_AT_EPOCH":10590,"BSTAR":9.9157e-5,"MEAN_MOTION_DOT":2.578e-5,"MEAN_MOTION_DDOT":0},{"OBJECT_NAME":"STARLINK-31820","OBJECT_ID":"2024-088T","EPOCH":"2026-03-24T05:16:30.267264","MEAN_MOTION":15.3019551,"ECCENTRICITY":0.0001362,"INCLINATION":53.1611,"RA_OF_ASC_NODE":72.6408,"ARG_OF_PERICENTER":81.1807,"MEAN_ANOMALY":278.9348,"EPHEMERIS_TYPE":0,"CLASSIFICATION_TYPE":"U","NORAD_CAT_ID":59725,"ELEMENT_SET_NO":999,"REV_AT_EPOCH":10590,"BSTAR":0.00023499,"MEAN_MOTION_DOT":6.606e-5,"MEAN_MOTION_DDOT":0},{"OBJECT_NAME":"STARLINK-31642","OBJECT_ID":"2024-088U","EPOCH":"2026-03-24T05:22:33.403872","MEAN_MOTION":15.30204722,"ECCENTRICITY":0.00013528,"INCLINATION":53.1612,"RA_OF_ASC_NODE":72.6637,"ARG_OF_PERICENTER":114.949,"MEAN_ANOMALY":245.1652,"EPHEMERIS_TYPE":0,"CLASSIFICATION_TYPE":"U","NORAD_CAT_ID":59726,"ELEMENT_SET_NO":999,"REV_AT_EPOCH":10590,"BSTAR":0.00013807336,"MEAN_MOTION_DOT":3.733e-5,"MEAN_MOTION_DDOT":0},{"OBJECT_NAME":"STARLINK-31827","OBJECT_ID":"2024-088V","EPOCH":"2026-03-24T05:31:41.832192","MEAN_MOTION":15.30196516,"ECCENTRICITY":0.00013885,"INCLINATION":53.1611,"RA_OF_ASC_NODE":72.7017,"ARG_OF_PERICENTER":85.1553,"MEAN_ANOMALY":274.9606,"EPHEMERIS_TYPE":0,"CLASSIFICATION_TYPE":"U","NORAD_CAT_ID":59727,"ELEMENT_SET_NO":999,"REV_AT_EPOCH":10602,"BSTAR":0.00024344658,"MEAN_MOTION_DOT":6.857e-5,"MEAN_MOTION_DDOT":0}]
