STARLINK-11108 [DTC]    
1 59712U 24088E   26081.89002953  .00005708  00000+0  51959-4 0  9991
2 59712  53.1594 261.3330 0000889  57.0476 303.0627 15.69700663108345
STARLINK-11100 [DTC]    
1 59713U 24088F   26083.47685200 -.00002028  00000+0 -11895-4 0  9999
2 59713  53.1591 253.4535 0000509  44.2105 315.8953 15.69710816108599
STARLINK-11094 [DTC]    
1 59714U 24088G   26083.47195108  .00059640  00000+0  49337-3 0  9994
2 59714  53.1592 253.4285 0000634 149.0432 211.0623 15.69720979108591
STARLINK-11101 [DTC]    
1 59715U 24088H   26083.46212925 -.00003106  00000+0 -20802-4 0  9996
2 59715  53.1584 253.3548 0000689  29.2530 330.8527 15.69705548108590
STARLINK-11099 [DTC]    
1 59716U 24088J   26083.46704041 -.00002064  00000+0 -12174-4 0  9997
2 59716  53.1582 253.3874 0001435 124.4591 235.6562 15.69711387108595
STARLINK-11084 [DTC]    
1 59717U 24088K   26083.45724708  .00005199  00000+0  47787-4 0  9997
2 59717  53.1600 253.3219 0000486 247.8959 112.2007 15.69683835108593
STARLINK-11103 [DTC]    
1 59718U 24088L   26083.45234732  .00007209  00000+0  64445-4 0  9995
2 59718  53.1598 253.2885 0000388 198.0861 162.0143 15.69653271108593
STARLINK-11096 [DTC]    
1 59719U 24088M   26083.50139897 -.00001344  00000+0 -62527-5 0  9994
2 59719  53.1593 253.6128 0000736 221.2068 138.8894 15.69680147108594
STARLINK-11095 [DTC]    
1 59720U 24088N   26083.19276382 -.00006483  00000+0 -48768-4 0  9991
2 59720  53.1599 254.5098 0001535  95.6590 264.4603 15.69669480108556
STARLINK-31834          
1 59721U 24088P   26083.21663292 -.00002345  00000+0 -67108-4 0  9997
2 59721  53.1613  72.6220 0002155  82.8140 277.3105 15.30171243106087
STARLINK-31843          
1 59722U 24088Q   26083.22718105  .00005907  00000+0  21144-3 0  9997
2 59722  53.1599  72.6851 0001069  78.0126 282.0994 15.30193857105909
STARLINK-31766          
1 59723U 24088R   26083.20607574  .00006358  00000+0  22662-3 0  9990
2 59723  53.1596  72.5553 0001419  90.2501 269.8662 15.30197602105904
STARLINK-31836          
1 59724U 24088S   26083.21029107  .00002578  00000+0  99157-4 0  9996
2 59724  53.1608  72.5818 0000658 110.4249 249.6823 15.30190622105901
STARLINK-31820          
1 59725U 24088T   26083.21979476  .00006606  00000+0  23499-3 0  9991
2 59725  53.1611  72.6408 0001362  81.1807 278.9348 15.30195510105907
STARLINK-31642          
1 59726U 24088U   26083.22399773  .00003733  00000+0  13807-3 0  9999
2 59726  53.1612  72.6637 0001352 114.9490 245.1652 15.30204722105905
STARLINK-31827          
1 59727U 24088V   26083.23034528  .00006857  00000+0  24345-3 0  9994
2 59727  53.1611  72.7017 0001388  85.1553 274.9606 15.30196516106020
